{
  "type": "FeatureCollection",
  "features": [
    {
      "type": "Feature",
      "properties": {
        "norad_id": 67061,
        "name": "HULIANWANG DIGUI-121",
        "group": "last-30-days",
        "lat": 1.6233168582623645,
        "lon": -49.87575607045166,
        "alt_km": 804.387285133369,
        "timestamp": "2025-12-27T18:38:02.206940+00:00",
        "meta_object_name": "HULIANWANG DIGUI-121",
        "meta_object_id": "2025-295C",
        "meta_epoch": "2025-12-23T10:16:36.437664",
        "meta_mean_motion": 14.25038967,
        "meta_eccentricity": 0.00134061,
        "meta_inclination": 50.0019,
        "meta_ra_of_asc_node": 327.1083,
        "meta_arg_of_pericenter": 283.4183,
        "meta_mean_anomaly": 76.5236,
        "meta_ephemeris_type": 0,
        "meta_classification_type": "U",
        "meta_norad_cat_id": 67061,
        "meta_element_set_no": 999,
        "meta_rev_at_epoch": 164,
        "meta_bstar": -3.3550159e-05,
        "meta_mean_motion_dot": -2.39e-06,
        "meta_mean_motion_ddot": 0,
        "tle_line1": "1 67061U 25295C   25357.42819951 -.00000239  00000+0 -33550-4 0  9999",
        "tle_line2": "2 67061  50.0019 327.1083 0013406 283.4183  76.5236 14.25038967  1649"
      },
      "geometry": {
        "type": "Point",
        "coordinates": [
          -49.87575607045166,
          1.6233168582623645
        ]
      }
    },
    {
      "type": "Feature",
      "properties": {
        "norad_id": 67062,
        "name": "HULIANWANG DIGUI-122",
        "group": "last-30-days",
        "lat": 15.718868808758232,
        "lon": -37.595157788111806,
        "alt_km": 801.6772060193671,
        "timestamp": "2025-12-27T18:38:02.206950+00:00",
        "meta_object_name": "HULIANWANG DIGUI-122",
        "meta_object_id": "2025-295D",
        "meta_epoch": "2025-12-24T16:31:18.472800",
        "meta_mean_motion": 14.25758016,
        "meta_eccentricity": 0.00131642,
        "meta_inclination": 50.0052,
        "meta_ra_of_asc_node": 321.783,
        "meta_arg_of_pericenter": 295.5417,
        "meta_mean_anomaly": 64.4135,
        "meta_ephemeris_type": 0,
        "meta_classification_type": "U",
        "meta_norad_cat_id": 67062,
        "meta_element_set_no": 999,
        "meta_rev_at_epoch": 182,
        "meta_bstar": 7.4037124e-05,
        "meta_mean_motion_dot": 1.7e-07,
        "meta_mean_motion_ddot": 0,
        "tle_line1": "1 67062U 25295D   25358.68840825  .00000017  00000+0  74037-4 0  9990",
        "tle_line2": "2 67062  50.0052 321.7830 0013164 295.5417  64.4135 14.25758016  1820"
      },
      "geometry": {
        "type": "Point",
        "coordinates": [
          -37.595157788111806,
          15.718868808758232
        ]
      }
    },
    {
      "type": "Feature",
      "properties": {
        "norad_id": 67063,
        "name": "HULIANWANG DIGUI-123",
        "group": "last-30-days",
        "lat": 21.264064411065103,
        "lon": -32.20622568909637,
        "alt_km": 801.7831970890102,
        "timestamp": "2025-12-27T18:38:02.206963+00:00",
        "meta_object_name": "HULIANWANG DIGUI-123",
        "meta_object_id": "2025-295E",
        "meta_epoch": "2025-12-23T18:37:38.191872",
        "meta_mean_motion": 14.25890271,
        "meta_eccentricity": 0.00124733,
        "meta_inclination": 50.0059,
        "meta_ra_of_asc_node": 325.6275,
        "meta_arg_of_pericenter": 291.5304,
        "meta_mean_anomaly": 68.428,
        "meta_ephemeris_type": 0,
        "meta_classification_type": "U",
        "meta_norad_cat_id": 67063,
        "meta_element_set_no": 999,
        "meta_rev_at_epoch": 169,
        "meta_bstar": 6.4661609e-05,
        "meta_mean_motion_dot": -5e-08,
        "meta_mean_motion_ddot": 0,
        "tle_line1": "1 67063U 25295E   25357.77613648 -.00000005  00000+0  64662-4 0  9992",
        "tle_line2": "2 67063  50.0059 325.6275 0012473 291.5304  68.4280 14.25890271  1697"
      },
      "geometry": {
        "type": "Point",
        "coordinates": [
          -32.20622568909637,
          21.264064411065103
        ]
      }
    },
    {
      "type": "Feature",
      "properties": {
        "norad_id": 67064,
        "name": "HULIANWANG DIGUI-124",
        "group": "last-30-days",
        "lat": 23.66243529806476,
        "lon": -29.713016127222367,
        "alt_km": 802.6116338114762,
        "timestamp": "2025-12-27T18:38:02.206973+00:00",
        "meta_object_name": "HULIANWANG DIGUI-124",
        "meta_object_id": "2025-295F",
        "meta_epoch": "2025-12-22T05:36:45.096192",
        "meta_mean_motion": 14.25948838,
        "meta_eccentricity": 0.00121422,
        "meta_inclination": 50.0035,
        "meta_ra_of_asc_node": 332.1235,
        "meta_arg_of_pericenter": 280.5756,
        "meta_mean_anomaly": 79.379,
        "meta_ephemeris_type": 0,
        "meta_classification_type": "U",
        "meta_norad_cat_id": 67064,
        "meta_element_set_no": 999,
        "meta_rev_at_epoch": 147,
        "meta_bstar": -0.00021789546,
        "meta_mean_motion_dot": -6.84e-06,
        "meta_mean_motion_ddot": 0,
        "tle_line1": "1 67064U 25295F   25356.23385528 -.00000684  00000+0 -21790-3 0  9994",
        "tle_line2": "2 67064  50.0035 332.1235 0012142 280.5756  79.3790 14.25948838  1479"
      },
      "geometry": {
        "type": "Point",
        "coordinates": [
          -29.713016127222367,
          23.66243529806476
        ]
      }
    },
    {
      "type": "Feature",
      "properties": {
        "norad_id": 67065,
        "name": "HULIANWANG DIGUI-125",
        "group": "last-30-days",
        "lat": 23.94077697695852,
        "lon": -29.41182883624416,
        "alt_km": 801.6196935621238,
        "timestamp": "2025-12-27T18:38:02.206983+00:00",
        "meta_object_name": "HULIANWANG DIGUI-125",
        "meta_object_id": "2025-295G",
        "meta_epoch": "2025-12-24T03:01:26.356800",
        "meta_mean_motion": 14.25956035,
        "meta_eccentricity": 0.00122653,
        "meta_inclination": 50.0009,
        "meta_ra_of_asc_node": 324.1276,
        "meta_arg_of_pericenter": 293.4537,
        "meta_mean_anomaly": 66.5087,
        "meta_ephemeris_type": 0,
        "meta_classification_type": "U",
        "meta_norad_cat_id": 67065,
        "meta_element_set_no": 999,
        "meta_rev_at_epoch": 174,
        "meta_bstar": 6.5028559e-05,
        "meta_mean_motion_dot": -4e-08,
        "meta_mean_motion_ddot": 0,
        "tle_line1": "1 67065U 25295G   25358.12599950 -.00000004  00000+0  65029-4 0  9990",
        "tle_line2": "2 67065  50.0009 324.1276 0012265 293.4537  66.5087 14.25956035  1748"
      },
      "geometry": {
        "type": "Point",
        "coordinates": [
          -29.41182883624416,
          23.94077697695852
        ]
      }
    },
    {
      "type": "Feature",
      "properties": {
        "norad_id": 67066,
        "name": "HULIANWANG DIGUI-126",
        "group": "last-30-days",
        "lat": 29.641081830048247,
        "lon": -22.775326573478115,
        "alt_km": 801.8353645319921,
        "timestamp": "2025-12-27T18:38:02.206993+00:00",
        "meta_object_name": "HULIANWANG DIGUI-126",
        "meta_object_id": "2025-295H",
        "meta_epoch": "2025-12-24T16:26:54.676320",
        "meta_mean_motion": 14.26099416,
        "meta_eccentricity": 0.00114214,
        "meta_inclination": 50.0012,
        "meta_ra_of_asc_node": 321.7514,
        "meta_arg_of_pericenter": 292.7089,
        "meta_mean_anomaly": 67.2617,
        "meta_ephemeris_type": 0,
        "meta_classification_type": "U",
        "meta_norad_cat_id": 67066,
        "meta_element_set_no": 999,
        "meta_rev_at_epoch": 182,
        "meta_bstar": 8.0653336e-05,
        "meta_mean_motion_dot": 3.4e-07,
        "meta_mean_motion_ddot": 0,
        "tle_line1": "1 67066U 25295H   25358.68535505  .00000034  00000+0  80653-4 0  9990",
        "tle_line2": "2 67066  50.0012 321.7514 0011421 292.7089  67.2617 14.26099416  1826"
      },
      "geometry": {
        "type": "Point",
        "coordinates": [
          -22.775326573478115,
          29.641081830048247
        ]
      }
    },
    {
      "type": "Feature",
      "properties": {
        "norad_id": 67067,
        "name": "HULIANWANG DIGUI-127",
        "group": "last-30-days",
        "lat": 34.916813767977615,
        "lon": -15.44919758826101,
        "alt_km": 801.0626565951161,
        "timestamp": "2025-12-27T18:38:02.207005+00:00",
        "meta_object_name": "HULIANWANG DIGUI-127",
        "meta_object_id": "2025-295J",
        "meta_epoch": "2025-12-22T15:39:07.411968",
        "meta_mean_motion": 14.26251195,
        "meta_eccentricity": 0.00108509,
        "meta_inclination": 50.0053,
        "meta_ra_of_asc_node": 330.3407,
        "meta_arg_of_pericenter": 289.3117,
        "meta_mean_anomaly": 70.6623,
        "meta_ephemeris_type": 0,
        "meta_classification_type": "U",
        "meta_norad_cat_id": 67067,
        "meta_element_set_no": 999,
        "meta_rev_at_epoch": 153,
        "meta_bstar": -0.00027534515,
        "meta_mean_motion_dot": -8.25e-06,
        "meta_mean_motion_ddot": 0,
        "tle_line1": "1 67067U 25295J   25356.65216912 -.00000825  00000+0 -27535-3 0  9993",
        "tle_line2": "2 67067  50.0053 330.3407 0010850 289.3117  70.6623 14.26251195  1535"
      },
      "geometry": {
        "type": "Point",
        "coordinates": [
          -15.44919758826101,
          34.916813767977615
        ]
      }
    }
  ]
}